EUTELSAT 8 WEST B       
1 40875U 15039B   25299.25854237 -.00000053  00000+0  00000+0 0  9992
2 40875   0.0695   2.7050 0003960 217.2734 259.9849  1.00271697 37317
EUTELSAT 9B             
1 41310U 16005A   25299.26183573  .00000074  00000+0  00000+0 0  9992
2 41310   0.0732  71.9969 0003769 171.7200 254.4546  1.00273207 35771
EUTELSAT 65 WEST A      
1 41382U 16014A   25299.24718898 -.00000264  00000+0  00000+0 0  9995
2 41382   0.0657  40.7303 0002214 177.8935 200.0708  1.00273707 35185
EUTELSAT 117 WEST B     
1 41589U 16038B   25299.09419711  .00000001  00000+0  00000+0 0  9993
2 41589   0.0104 102.8646 0000244 172.0145  36.7724  1.00270585 34319
EUTELSAT 172B           
1 42741U 17029B   25299.22283553  .00000007  00000+0  00000+0 0  9999
2 42741   0.0200 172.8553 0000289 277.2323 197.0181  1.00271646 31387
EUTELSAT 7C             
1 44334U 19034B   25299.26148906  .00000060  00000+0  00000+0 0  9992
2 44334   0.0667 187.7047 0003092   5.6951 302.6466  1.00270513  4496
EUTELSAT 5 WEST B       
1 44624U 19067A   25299.25906238 -.00000030  00000+0  00000+0 0  9997
2 44624   0.0679   0.2767 0003073 212.9693 269.9455  1.00271106 22092
EUTELSAT KONNECT        
1 45027U 20005B   25299.26148906  .00000062  00000+0  00000+0 0  9994
2 45027   0.0655  88.8559 0001171 164.1591 243.2429  1.00269324 21989
